# From MPEC 2024-C04
142P/Ge-Wang,e,12.2498,175.9427,174.0691,5.002195,0.0880974,0.49665599,88.9370,02/16.0/2024,2000,g  8.5,6.0
# From MPEC 2023-XP6
143P/Kowal-Mrkos,e,4.9402,244.0251,320.7223,4.255377,0.1122786,0.42457841,237.9116,02/16.0/2024,2000,g 13.5,2.0
# From MPEC 2024-C04
144P/Kushida,e,3.9319,242.9257,216.3201,3.831189,0.1314328,0.63487680,2.7904,02/16.0/2024,2000,g  8.5,8.0
# From MPC108598
145P/Shoemaker-Levy,e,11.2779,26.8152,10.3060,4.133512,0.1172804,0.54260571,276.0565,02/16.0/2024,2000,g 13.5,4.0
# From MPC100284
146P/Shoemaker-LINEAR,e,23.1171,53.4199,317.0213,4.026415,0.1219906,0.64744019,339.0805,02/16.0/2024,2000,g 15.0,4.0
# From MPC 75720
147P/Kushida-Muramatsu,e,2.2913,92.1160,348.1073,4.011414,0.1226755,0.21259821,8.6996,02/16.0/2024,2000,g 14.0,4.0
# From MPEC 2023-HD1
148P/Anderson-LINEAR,e,3.6585,89.1974,8.0522,3.619709,0.1431178,0.55019784,87.6119,02/16.0/2024,2000,g 16.2,4.0
# From MPEC 2023-J29
149P/Mueller,e,34.2411,143.8513,30.4101,4.124204,0.1176776,0.32433464,238.1135,02/16.0/2024,2000,g  8.0,8.0
# From MPEC 2024-C04
150P/LONEOS,e,18.5474,272.0596,246.1112,3.869781,0.1294716,0.54891857,356.7037,02/16.0/2024,2000,g 13.5,4.0
# From MPEC 2022-K19
151P/Helin,e,4.7280,143.1677,216.1276,5.763959,0.0712234,0.57336105,216.9701,02/16.0/2024,2000,g 10.0,6.0
# From MPEC 2024-C04
152P/Helin-Lawrence,e,9.8778,91.8040,164.3227,4.482544,0.1038526,0.30821857,79.1607,02/16.0/2024,2000,g 11.5,4.0
# From MPC 46101
153P/Ikeya-Zhang,e,28.3680,93.6775,34.4118,50.34794,0.0027589,0.98995335,0.0000,03/05.3632/2002,2000,g  9.0,4.0
# From MPEC 2022-K19
154P/Brewington,e,17.6341,343.0164,47.9615,4.795249,0.0938615,0.67615200,349.0695,02/16.0/2024,2000,g  2.5,12.0
# From MPEC 2022-YN2
155P/Shoemaker,e,6.4071,97.1599,14.5215,6.571121,0.0585120,0.72721516,90.8726,02/16.0/2024,2000,g 10.0,4.8
# From MPEC 2023-J29
156P/Russell-LINEAR,e,17.2699,35.3420,0.5014,3.462475,0.1529763,0.61515219,181.1878,02/16.0/2024,2000,g 15.5,2.0
# From MPEC 2023-HD1
157P/Tritton,e,12.4204,287.5226,155.1147,3.546806,0.1475530,0.55680293,77.3309,02/16.0/2024,2000,g 15.0,4.0
# From MPEC 2022-VC5
157P-B/Tritton,e,12.4252,153.9194,287.1368,3.102222,0.1803826,0.49987346,94.8612,02/16.0/2024,2000,g 15.7,4.0
# From MPEC 2024-AF0
158P/Kowal-LINEAR,e,7.2876,127.6044,212.6194,5.532015,0.0757494,0.11493370,50.4442,02/16.0/2024,2000,g  9.0,4.0
# From MPEC 2021-N06
159P/LONEOS,e,23.4825,54.9586,4.6195,5.853149,0.0696017,0.38282229,145.6809,02/16.0/2024,2000,g 10.0,4.0
# From MPEC 2022-K19
160P/LINEAR,e,15.6052,333.3752,12.7856,3.778053,0.1342153,0.52559086,206.2318,02/16.0/2024,2000,g 15.5,2.0
# From MPC 75721
161P/Hartley-IRAS,e,95.8234,1.5676,47.0582,7.713322,0.0460089,0.83559855,313.2449,02/16.0/2024,2000,g  8.5,6.0
# From MPEC 2023-RF3
162P/SidingSpring,e,27.5638,30.8876,357.2128,3.092189,0.1812613,0.58313342,211.0815,02/16.0/2024,2000,g 12.0,4.0
# From MPEC 2021-S45
163P/NEAT,e,12.7186,102.0689,349.5715,3.763185,0.1350115,0.45315084,223.3724,02/16.0/2024,2000,g 14.5,4.0
# From MPEC 2021-F20
164P/Christensen,e,16.2722,88.3040,325.8816,3.652695,0.1411835,0.54122713,294.1572,02/16.0/2024,2000,g 11.0,4.0
# From MPC 75721
165P/LINEAR,e,15.8989,0.8018,125.7672,17.82124,0.0131008,0.61793642,113.4886,02/16.0/2024,2000,g 11.5,2.0
# From MPC 75722
166P/NEAT,e,15.3792,64.4330,321.7113,13.82403,0.0191757,0.38430618,151.8910,02/16.0/2024,2000,g  5.5,4.0
# From MPEC 2023-J29
167P/CINEOS,e,19.0888,295.7909,344.7266,16.25809,0.0150349,0.26850858,125.3723,02/16.0/2024,2000,g  9.5,2.0
# From MPEC 2023-J29
168P/Hergenrother,e,21.6054,355.4201,15.0731,3.586915,0.1450850,0.62156053,239.5822,02/16.0/2024,2000,g 15.5,4.0
# From MPEC 2023-J95
169P/NEAT,e,11.2947,176.0937,218.0782,2.603282,0.2346509,0.76830077,137.5657,02/16.0/2024,2000,g 16.0,2.0
# From MPEC 2024-C04
170P/Christensen,e,10.1118,142.7372,225.1924,4.208061,0.1141777,0.30575335,34.7099,02/16.0/2024,2000,g 12.0,4.0
# From MPC102102
171P/Spahr,e,21.9493,101.6979,347.0586,3.552755,0.1471825,0.50254612,273.5916,02/16.0/2024,2000,g 13.5,4.0
# From MPEC 2024-BE0
172P/Yeung,e,11.2252,30.8767,209.0645,4.219983,0.1136941,0.20449223,288.7722,02/16.0/2024,2000,g 13.0,4.0
# From MPEC 2023-N01
173P/Mueller,e,16.4902,100.3597,29.1814,5.712195,0.0721937,0.26194787,57.1281,02/16.0/2024,2000,g  7.5,4.0
# From MPC 92985
174P/Echeclus,e,4.3431,173.2961,163.4249,10.75418,0.0279472,0.45608512,89.9612,02/16.0/2024,2000,g  9.4,2.0
# From MPC114608
175P/Hergenrother,e,4.9105,110.2109,75.1561,3.669382,0.1402215,0.38086330,229.7547,02/16.0/2024,2000,g 14.0,4.0
# From MPC 89015
176P/LINEAR,e,0.2314,345.6220,34.4563,3.194473,0.1726256,0.19227762,78.1699,02/16.0/2024,2000,g 15.1,2.0
# From MPEC 2020-L06
177P/Barnard,e,31.0635,271.9832,60.5822,24.51405,0.0081205,0.95477413,51.7539,02/16.0/2024,2000,g 15.0,4.0
# From MPEC 2021-F20
178P/Hug-Bell,e,11.0895,102.8021,297.9150,3.632806,0.1423445,0.48253332,186.2337,02/16.0/2024,2000,g 14.6,4.0
# From MPEC 2024-C04
179P/Jedicke,e,19.8943,115.5151,297.0876,5.934521,0.0681751,0.30581150,42.6454,02/16.0/2024,2000,g  2.5,8.0
# From MPEC 2023-RF3
180P/NEAT,e,16.8609,84.5603,94.6531,3.868447,0.1295386,0.35356010,28.3518,02/16.0/2024,2000,g 11.0,4.0
# From MPC 89012
181P/Shoemaker-Levy,e,17.4831,35.4202,336.2849,3.877417,0.1290893,0.70036961,99.1775,02/16.0/2024,2000,g 11.5,4.0
# From MPEC 2014-J10
182P/LONEOS,e,16.2316,72.4490,54.2088,2.949547,0.1945678,0.66351091,125.4272,02/16.0/2024,2000,g 18.0,4.0
# From MPEC 2023-A50
183P/Korlevic-Juric,e,18.8280,3.8866,165.0590,4.685451,0.0971800,0.10374316,230.7908,02/16.0/2024,2000,g 12.5,2.0
# From MPEC 2020-W26
184P/Lovas,e,4.5731,173.2757,186.5545,3.798980,0.1331078,0.55051926,160.7656,02/16.0/2024,2000,g 13.5,4.0
# From MPEC 2024-A43
185P/Petriew,e,14.0145,214.1149,181.8929,3.098386,0.1807177,0.69970560,39.4156,02/16.0/2024,2000,g 15.0,4.0
# From MPEC 2022-X67
186P/Garradd,e,28.6276,326.1485,269.0993,4.851736,0.0922271,0.12427660,173.1322,02/16.0/2024,2000,g  7.5,4.0
# From MPEC 2020-SI8
187P/LINEAR,e,13.6474,109.8538,131.1701,4.560598,0.1011979,0.15369175,213.2909,02/16.0/2024,2000,g  9.0,4.0
# From MPEC 2023-J29
188P/LINEAR-Mueller,e,10.5240,358.9428,26.7315,4.368318,0.1079525,0.41693327,275.0466,02/16.0/2024,2000,g 11.5,4.0
# From MPEC 2022-QD9
189P/NEAT,e,20.0885,281.6746,16.2743,2.943513,0.1951665,0.58912222,104.6398,02/16.0/2024,2000,g 19.0,4.0
# From MPEC 2020-K19
190P/Mueller,e,2.1745,335.5627,50.4387,4.227623,0.1133861,0.52223860,324.6134,02/16.0/2024,2000,g 13.0,4.0
# From MPEC 2022-X67
191P/McNaught,e,8.8389,98.1957,284.2237,3.639259,0.1419661,0.38573722,150.8319,02/16.0/2024,2000,g 13.0,4.0
# From MPC 75724
192P/Shoemaker-Levy,e,24.5849,51.6552,313.0436,6.460137,0.0600263,0.77330292,354.0953,02/16.0/2024,2000,g 15.0,4.0
# From MPEC 2022-Y15
193P/LINEAR-NEAT,e,10.6848,335.1864,8.1334,3.577978,0.1456289,0.39321990,131.8086,02/16.0/2024,2000,g 14.0,4.0
# From MPEC 2024-C04
194P/LINEAR,e,11.8061,349.5245,128.5630,4.119668,0.1178720,0.56317547,1.3882,02/16.0/2024,2000,g 16.0,4.0
# From MPEC 2024-C04
195P/Hill,e,36.4130,243.1079,249.8879,6.488545,0.0596325,0.31456321,328.3630,02/16.0/2024,2000,g  8.5,4.0
# From MPEC 2022-YN2
196P/Tichy,e,19.3014,24.1142,12.0761,3.804140,0.1328371,0.42795870,63.0512,02/16.0/2024,2000,g 13.5,4.0
# From MPEC 2023-UR6
197P/LINEAR,e,25.5791,66.2834,188.9888,2.874808,0.2022045,0.62949120,87.9580,02/16.0/2024,2000,g 16.5,2.0
# From NK 1596
198P/ODAS,e,1.3387,358.2127,69.2672,3.594668,0.1446158,0.44471868,272.9889,02/16.0/2024,2000,g  9.0,4.0
# From MPEC 2023-W26
199P/Shoemaker,e,24.9387,92.3486,191.7719,5.878577,0.0691506,0.50491430,13.3067,02/16.0/2024,2000,g 10.0,4.0
# From MPEC 2022-C56
200P/Larsen,e,12.0962,234.8063,134.3496,4.949544,0.0895069,0.33211338,148.7438,02/16.0/2024,2000,g  9.0,4.0
# From MPC 93588
201P/LONEOS,e,5.7401,41.5403,19.7618,3.354787,0.1604008,0.63755998,159.5630,02/16.0/2024,2000,g 14.0,4.0
# From MPEC 2023-XP6
202P/Scotti,e,2.1416,177.3253,274.4827,4.106579,0.1184360,0.25250202,349.1747,02/16.0/2024,2000,g 13.5,4.0
# From MPEC 2021-S45
203P/Korlevic,e,2.9739,290.2585,154.8252,4.668752,0.0977019,0.31618153,140.8984,02/16.0/2024,2000,g 14.5,2.0
# From MPEC 2023-KD6
204P/LINEAR-NEAT,e,6.5962,108.4862,356.6845,3.583283,0.1453056,0.48808994,66.2668,02/16.0/2024,2000,g 14.0,4.0
# From MPEC 2023_O39
205P/Giacobini,e,15.3050,179.6104,154.1846,3.542475,0.1478236,0.56762370,112.8764,02/16.0/2024,2000,g 13.0,4.0
# From MPC 75725
206P/Barnard-Boattini,e,33.6356,202.3522,189.5474,3.490856,0.1511145,0.55146459,162.9112,02/16.0/2024,2000,g 19.0,4.0
# From MPEC 2024-C04
207P/NEAT,e,10.2008,198.1588,272.9843,3.882693,0.1288263,0.75835817,1.9564,02/16.0/2024,2000,g 16.0,4.0
# From MPEC 2022-K19
208P/McMillan,e,4.4123,36.4018,310.6045,4.038986,0.1214215,0.37391269,336.9437,02/16.0/2024,2000,g 12.5,4.0
# From MPEC 2024-A43
209P/LINEAR,e,21.2825,62.7698,152.4914,2.958422,0.1936929,0.67399424,331.0434,02/16.0/2024,2000,g 17.0,2.0
# From MPC105242
210P/Christensen,e,10.2784,93.8240,345.8934,3.162269,0.1752693,0.83396369,246.8285,02/16.0/2024,2000,g 13.5,4.0
# From MPEC 2023-KD6
211P/Hill,e,18.9190,117.1148,4.3129,3.548721,0.1474335,0.34418987,73.6090,02/16.0/2024,2000,g 12.5,4.0
# From MPEC 2024-C04
212P/NEAT,e,22.1479,97.9757,14.0213,3.902074,0.1278677,0.58677274,351.1653,02/16.0/2024,2000,g 17.0,2.0
# From MPEC 2022-GA9
213P/Van Ness,e,10.3812,311.3096,5.7583,3.345035,0.1611028,0.40797597,15.4993,02/16.0/2024,2000,g 10.5,4.0
# From MPC 76570
213P-B/Van Ness,e,10.3807,5.7373,311.3389,3.345299,0.1610837,0.40812246,15.3522,02/16.0/2024,2000,g 17.0,4.0
# From MPC 76570
213P-C/Van Ness,e,10.3782,5.7188,311.3399,3.344641,0.1611313,0.40795760,15.6254,02/16.0/2024,2000,g 17.5,4.0
# From MPC 92986
214P/LINEAR,e,15.1850,348.2236,190.1511,3.618053,0.1432161,0.48587744,72.7349,02/16.0/2024,2000,g 13.0,4.0
# From MPEC 2024-C04
215P/NEAT,e,10.5765,56.6734,262.4144,4.333261,0.1092652,0.16549645,169.4581,02/16.0/2024,2000,g 11.0,4.0
# From MPEC 2024-C04
